[{"OBJECT_NAME":"OPS 7218 (TRANSIT 16)","OBJECT_ID":"1967-048A","EPOCH":"2026-03-15T06:49:55.369632","MEAN_MOTION":13.50745646,"ECCENTRICITY":0.00190061,"INCLINATION":89.6809,"RA_OF_ASC_NODE":350.9864,"ARG_OF_PERICENTER":203.8612,"MEAN_ANOMALY":268.5017,"EPHEMERIS_TYPE":0,"CLASSIFICATION_TYPE":"U","NORAD_CAT_ID":2807,"ELEMENT_SET_NO":999,"REV_AT_EPOCH":89525,"BSTAR":0.00016413321,"MEAN_MOTION_DOT":1.16e-6,"MEAN_MOTION_DDOT":0},{"OBJECT_NAME":"OPS 4947 (TRANSIT 17)","OBJECT_ID":"1967-092A","EPOCH":"2026-03-15T05:37:56.295840","MEAN_MOTION":13.53479826,"ECCENTRICITY":0.00468428,"INCLINATION":89.2574,"RA_OF_ASC_NODE":17.3961,"ARG_OF_PERICENTER":329.7539,"MEAN_ANOMALY":153.0203,"EPHEMERIS_TYPE":0,"CLASSIFICATION_TYPE":"U","NORAD_CAT_ID":2965,"ELEMENT_SET_NO":999,"REV_AT_EPOCH":88348,"BSTAR":0.00017616274,"MEAN_MOTION_DOT":1.3e-6,"MEAN_MOTION_DDOT":0},{"OBJECT_NAME":"OPS 7034 (TRANSIT 18)","OBJECT_ID":"1968-012A","EPOCH":"2026-03-15T02:38:44.002464","MEAN_MOTION":13.51590468,"ECCENTRICITY":0.00719654,"INCLINATION":90.0208,"RA_OF_ASC_NODE":273.8809,"ARG_OF_PERICENTER":262.8725,"MEAN_ANOMALY":215.8823,"EPHEMERIS_TYPE":0,"CLASSIFICATION_TYPE":"U","NORAD_CAT_ID":3133,"ELEMENT_SET_NO":999,"REV_AT_EPOCH":58166,"BSTAR":0.00017518985,"MEAN_MOTION_DOT":1.25e-6,"MEAN_MOTION_DDOT":0},{"OBJECT_NAME":"NNSS 19 (TRANSIT 19)","OBJECT_ID":"1970-067A","EPOCH":"2026-03-15T04:23:41.868672","MEAN_MOTION":13.51340048,"ECCENTRICITY":0.0172409,"INCLINATION":90.0069,"RA_OF_ASC_NODE":234.5853,"ARG_OF_PERICENTER":25.7103,"MEAN_ANOMALY":335.2494,"EPHEMERIS_TYPE":0,"CLASSIFICATION_TYPE":"U","NORAD_CAT_ID":4507,"ELEMENT_SET_NO":999,"REV_AT_EPOCH":73470,"BSTAR":0.00018945045,"MEAN_MOTION_DOT":1.45e-6,"MEAN_MOTION_DDOT":0},{"OBJECT_NAME":"NNSS 20 (TRANSIT 20)","OBJECT_ID":"1973-081A","EPOCH":"2026-03-15T04:46:11.715744","MEAN_MOTION":13.71477847,"ECCENTRICITY":0.01553116,"INCLINATION":89.8519,"RA_OF_ASC_NODE":253.6448,"ARG_OF_PERICENTER":160.3235,"MEAN_ANOMALY":200.4013,"EPHEMERIS_TYPE":0,"CLASSIFICATION_TYPE":"U","NORAD_CAT_ID":6909,"ELEMENT_SET_NO":999,"REV_AT_EPOCH":81628,"BSTAR":0.00022432951,"MEAN_MOTION_DOT":2.31e-6,"MEAN_MOTION_DDOT":0},{"OBJECT_NAME":"TRANSAT","OBJECT_ID":"1977-106A","EPOCH":"2026-03-15T06:32:32.163072","MEAN_MOTION":13.48958873,"ECCENTRICITY":0.00236072,"INCLINATION":89.6401,"RA_OF_ASC_NODE":75.2731,"ARG_OF_PERICENTER":288.237,"MEAN_ANOMALY":82.7013,"EPHEMERIS_TYPE":0,"CLASSIFICATION_TYPE":"U","NORAD_CAT_ID":10457,"ELEMENT_SET_NO":999,"REV_AT_EPOCH":37991,"BSTAR":0.00013126069,"MEAN_MOTION_DOT":9.2e-7,"MEAN_MOTION_DDOT":0},{"OBJECT_NAME":"NOVA 1","OBJECT_ID":"1981-044A","EPOCH":"2026-03-15T06:31:51.575808","MEAN_MOTION":13.23287972,"ECCENTRICITY":0.00134422,"INCLINATION":89.8417,"RA_OF_ASC_NODE":90.0314,"ARG_OF_PERICENTER":202.09,"MEAN_ANOMALY":169.3133,"EPHEMERIS_TYPE":0,"CLASSIFICATION_TYPE":"U","NORAD_CAT_ID":12458,"ELEMENT_SET_NO":999,"REV_AT_EPOCH":16410,"BSTAR":0.0001254871,"MEAN_MOTION_DOT":6.2e-7,"MEAN_MOTION_DDOT":0},{"OBJECT_NAME":"NOVA 3","OBJECT_ID":"1984-110A","EPOCH":"2026-03-15T07:34:01.036128","MEAN_MOTION":13.23057826,"ECCENTRICITY":0.00334152,"INCLINATION":90.1126,"RA_OF_ASC_NODE":81.5771,"ARG_OF_PERICENTER":75.1777,"MEAN_ANOMALY":297.0401,"EPHEMERIS_TYPE":0,"CLASSIFICATION_TYPE":"U","NORAD_CAT_ID":15362,"ELEMENT_SET_NO":999,"REV_AT_EPOCH":99923,"BSTAR":0.00016432813,"MEAN_MOTION_DOT":7.8e-7,"MEAN_MOTION_DDOT":0},{"OBJECT_NAME":"OSCAR 30","OBJECT_ID":"1985-066A","EPOCH":"2026-03-15T03:46:18.649920","MEAN_MOTION":13.36096121,"ECCENTRICITY":0.01677435,"INCLINATION":90.1537,"RA_OF_ASC_NODE":101.3163,"ARG_OF_PERICENTER":182.2964,"MEAN_ANOMALY":249.1199,"EPHEMERIS_TYPE":0,"CLASSIFICATION_TYPE":"U","NORAD_CAT_ID":15935,"ELEMENT_SET_NO":999,"REV_AT_EPOCH":97687,"BSTAR":0.00018069287,"MEAN_MOTION_DOT":1.09e-6,"MEAN_MOTION_DDOT":0},{"OBJECT_NAME":"OSCAR 24","OBJECT_ID":"1985-066B","EPOCH":"2026-03-15T01:45:20.339712","MEAN_MOTION":13.35953712,"ECCENTRICITY":0.01685243,"INCLINATION":90.1677,"RA_OF_ASC_NODE":93.8925,"ARG_OF_PERICENTER":189.074,"MEAN_ANOMALY":226.5669,"EPHEMERIS_TYPE":0,"CLASSIFICATION_TYPE":"U","NORAD_CAT_ID":15936,"ELEMENT_SET_NO":999,"REV_AT_EPOCH":97876,"BSTAR":0.00017328669,"MEAN_MOTION_DOT":1.05e-6,"MEAN_MOTION_DDOT":0},{"OBJECT_NAME":"POLAR BEAR","OBJECT_ID":"1986-088A","EPOCH":"2026-03-15T05:37:24.741696","MEAN_MOTION":13.7527165,"ECCENTRICITY":0.00388662,"INCLINATION":89.6257,"RA_OF_ASC_NODE":180.1011,"ARG_OF_PERICENTER":198.6009,"MEAN_ANOMALY":221.2987,"EPHEMERIS_TYPE":0,"CLASSIFICATION_TYPE":"U","NORAD_CAT_ID":17070,"ELEMENT_SET_NO":999,"REV_AT_EPOCH":97250,"BSTAR":9.8167031e-5,"MEAN_MOTION_DOT":1.06e-6,"MEAN_MOTION_DDOT":0},{"OBJECT_NAME":"OSCAR 27","OBJECT_ID":"1987-080A","EPOCH":"2026-03-15T07:40:03.638784","MEAN_MOTION":13.44925542,"ECCENTRICITY":0.01025002,"INCLINATION":90.3646,"RA_OF_ASC_NODE":82.6863,"ARG_OF_PERICENTER":320.3156,"MEAN_ANOMALY":39.0523,"EPHEMERIS_TYPE":0,"CLASSIFICATION_TYPE":"U","NORAD_CAT_ID":18361,"ELEMENT_SET_NO":999,"REV_AT_EPOCH":88801,"BSTAR":0.00016387952,"MEAN_MOTION_DOT":1.06e-6,"MEAN_MOTION_DDOT":0},{"OBJECT_NAME":"OSCAR 29","OBJECT_ID":"1987-080B","EPOCH":"2026-03-15T06:38:09.499776","MEAN_MOTION":13.44465372,"ECCENTRICITY":0.01047936,"INCLINATION":90.3653,"RA_OF_ASC_NODE":83.1508,"ARG_OF_PERICENTER":343.9107,"MEAN_ANOMALY":26.8904,"EPHEMERIS_TYPE":0,"CLASSIFICATION_TYPE":"U","NORAD_CAT_ID":18362,"ELEMENT_SET_NO":999,"REV_AT_EPOCH":88753,"BSTAR":0.00014947995,"MEAN_MOTION_DOT":9.8e-7,"MEAN_MOTION_DDOT":0},{"OBJECT_NAME":"OSCAR 23","OBJECT_ID":"1988-033A","EPOCH":"2026-03-15T07:14:05.660160","MEAN_MOTION":13.27804524,"ECCENTRICITY":0.01875742,"INCLINATION":90.3302,"RA_OF_ASC_NODE":19.2833,"ARG_OF_PERICENTER":283.231,"MEAN_ANOMALY":199.0929,"EPHEMERIS_TYPE":0,"CLASSIFICATION_TYPE":"U","NORAD_CAT_ID":19070,"ELEMENT_SET_NO":999,"REV_AT_EPOCH":83481,"BSTAR":0.00010543273,"MEAN_MOTION_DOT":5.8e-7,"MEAN_MOTION_DDOT":0},{"OBJECT_NAME":"OSCAR 32","OBJECT_ID":"1988-033B","EPOCH":"2026-03-15T06:23:57.704640","MEAN_MOTION":13.27969003,"ECCENTRICITY":0.01858669,"INCLINATION":90.3306,"RA_OF_ASC_NODE":19.419,"ARG_OF_PERICENTER":269.9862,"MEAN_ANOMALY":211.5043,"EPHEMERIS_TYPE":0,"CLASSIFICATION_TYPE":"U","NORAD_CAT_ID":19071,"ELEMENT_SET_NO":999,"REV_AT_EPOCH":83493,"BSTAR":8.1608123e-5,"MEAN_MOTION_DOT":4.7e-7,"MEAN_MOTION_DDOT":0},{"OBJECT_NAME":"NOVA 2","OBJECT_ID":"1988-052A","EPOCH":"2026-03-15T06:00:21.765024","MEAN_MOTION":13.2294842,"ECCENTRICITY":0.00320985,"INCLINATION":89.9782,"RA_OF_ASC_NODE":78.1107,"ARG_OF_PERICENTER":117.0114,"MEAN_ANOMALY":254.1258,"EPHEMERIS_TYPE":0,"CLASSIFICATION_TYPE":"U","NORAD_CAT_ID":19223,"ELEMENT_SET_NO":999,"REV_AT_EPOCH":82171,"BSTAR":0.00018924668,"MEAN_MOTION_DOT":8.9e-7,"MEAN_MOTION_DDOT":0},{"OBJECT_NAME":"OSCAR 25","OBJECT_ID":"1988-074A","EPOCH":"2026-03-15T05:51:41.749344","MEAN_MOTION":13.4264324,"ECCENTRICITY":0.0095791,"INCLINATION":90.0428,"RA_OF_ASC_NODE":20.5643,"ARG_OF_PERICENTER":343.6448,"MEAN_ANOMALY":143.3646,"EPHEMERIS_TYPE":0,"CLASSIFICATION_TYPE":"U","NORAD_CAT_ID":19419,"ELEMENT_SET_NO":999,"REV_AT_EPOCH":83881,"BSTAR":0.00017098001,"MEAN_MOTION_DOT":1.08e-6,"MEAN_MOTION_DDOT":0}]
