OPS 7218 (TRANSIT 16)   
1 02807U 67048A   26074.28466863  .00000116  00000+0  16413-3 0  9999
2 02807  89.6809 350.9864 0019006 203.8612 268.5017 13.50745646895251
OPS 4947 (TRANSIT 17)   
1 02965U 67092A   26074.23467935  .00000130  00000+0  17616-3 0  9991
2 02965  89.2574  17.3961 0046842 329.7539 153.0203 13.53479826883481
OPS 7034 (TRANSIT 18)   
1 03133U 68012A   26074.11023151  .00000125  00000+0  17519-3 0  9993
2 03133  90.0208 273.8809 0071965 262.8725 215.8823 13.51590468581665
NNSS 19 (TRANSIT 19)    
1 04507U 70067A   26074.18312348  .00000145  00000+0  18945-3 0  9994
2 04507  90.0069 234.5853 0172409  25.7103 335.2494 13.51340048734703
NNSS 20 (TRANSIT 20)    
1 06909U 73081A   26074.19874671  .00000231  00000+0  22433-3 0  9997
2 06909  89.8519 253.6448 0155311 160.3235 200.4013 13.71477847816288
TRANSAT                 
1 10457U 77106A   26074.27259448  .00000092  00000+0  13126-3 0  9994
2 10457  89.6401  75.2731 0023607 288.2370  82.7013 13.48958873379916
NOVA 1                  
1 12458U 81044A   26074.27212472  .00000062  00000+0  12549-3 0  9994
2 12458  89.8417  90.0314 0013442 202.0900 169.3133 13.23287972164105
NOVA 3                  
1 15362U 84110A   26074.31528977  .00000078  00000+0  16433-3 0  9996
2 15362  90.1126  81.5771 0033415  75.1777 297.0401 13.23057826999239
OSCAR 30                
1 15935U 85066A   26074.15716030  .00000109  00000+0  18069-3 0  9996
2 15935  90.1537 101.3163 0167743 182.2964 249.1199 13.36096121976879
OSCAR 24                
1 15936U 85066B   26074.07315208  .00000105  00000+0  17329-3 0  9994
2 15936  90.1677  93.8925 0168524 189.0740 226.5669 13.35953712978769
POLAR BEAR              
1 17070U 86088A   26074.23431414  .00000106  00000+0  98167-4 0  9997
2 17070  89.6257 180.1011 0038866 198.6009 221.2987 13.75271650972501
OSCAR 27                
1 18361U 87080A   26074.31948656  .00000106  00000+0  16388-3 0  9998
2 18361  90.3646  82.6863 0102500 320.3156  39.0523 13.44925542888016
OSCAR 29                
1 18362U 87080B   26074.27649884  .00000098  00000+0  14948-3 0  9995
2 18362  90.3653  83.1508 0104793 343.9107  26.8904 13.44465372887533
OSCAR 23                
1 19070U 88033A   26074.30145440  .00000058  00000+0  10543-3 0  9997
2 19070  90.3302  19.2833 0187574 283.2310 199.0929 13.27804524834812
OSCAR 32                
1 19071U 88033B   26074.26664010  .00000047  00000+0  81608-4 0  9991
2 19071  90.3306  19.4190 0185866 269.9862 211.5043 13.27969003834934
NOVA 2                  
1 19223U 88052A   26074.25025191  .00000089  00000+0  18925-3 0  9998
2 19223  89.9782  78.1107 0032098 117.0114 254.1258 13.22948420821714
OSCAR 25                
1 19419U 88074A   26074.24423321  .00000108  00000+0  17098-3 0  9997
2 19419  90.0428  20.5643 0095791 343.6448 143.3646 13.42643240838816
